     2.100          NAVIGATION                              RINEX VERSION / TYPE
fic2rin                                 06/30/2009 01:47:52 PGM / RUN BY / DATE
                                                            END OF HEADER
15 09  6 29 14  0  0.0 -.304768793285D-03 -.284217094304D-11  .000000000000D+00
     .800000000000D+02 -.499687500000D+02  .473233997810D-08  .313338263591D+01
    -.250153243542D-05  .145425938535D-02  .751577317715D-05  .515363410568D+04
     .136800000000D+06 -.242143869400D-07  .105770845424D+01  .167638063431D-07
     .956198482213D+00  .233125000000D+03 -.465439687134D+00 -.818569811004D-08
    -.182507602174D-09  .100000000000D+01  .153800000000D+04  .000000000000D+00
     .240000000000D+01  .000000000000D+00 -.977888703346D-08  .800000000000D+02
     .129606000000D+06  .400000000000D+01
16 09  6 29 14  0  0.0  .375155359507D-04 -.352429196937D-11  .000000000000D+00
     .160000000000D+02 -.350937500000D+02  .444339937113D-08 -.166654388206D+01
    -.177696347237D-05  .535489188042D-02  .616908073425D-05  .515356947136D+04
     .136800000000D+06 -.447034835815D-07 -.309369256245D+01 -.186264514923D-07
     .969048301117D+00  .266906250000D+03 -.326215945964D+00 -.809640867649D-08
     .300012496725D-10  .100000000000D+01  .153800000000D+04  .000000000000D+00
     .240000000000D+01  .000000000000D+00 -.977888703346D-08  .160000000000D+02
     .129606000000D+06  .400000000000D+01
17 09  6 29 14  0  0.0  .673104077578D-04  .227373675443D-11  .000000000000D+00
     .480000000000D+02 -.166875000000D+02  .427232081645D-08 -.279024315475D+01
    -.832602381706D-06  .455365527887D-02  .103823840618D-04  .515370251846D+04
     .136800000000D+06  .186264514923D-07 -.205152420567D+01 -.372529029846D-07
     .959542731961D+00  .177687500000D+03 -.263137952185D+01 -.781853995929D-08
    -.125005206969D-09  .100000000000D+01  .153800000000D+04  .000000000000D+00
     .240000000000D+01  .000000000000D+00 -.102445483208D-07  .480000000000D+02
     .129606000000D+06  .400000000000D+01
18 09  6 29 14  0  0.0 -.441530719399D-04  .318323145621D-11  .000000000000D+00
     .460000000000D+02  .231562500000D+02  .523557522558D-08 -.147298785497D+01
     .126287341118D-05  .105906768003D-01  .374950468540D-05  .515360449791D+04
     .136800000000D+06  .193715095520D-06  .541408704074D-01 -.558793544769D-08
     .942177010757D+00  .292875000000D+03 -.241175471590D+01 -.847463871700D-08
     .985755346381D-10  .100000000000D+01  .153800000000D+04  .000000000000D+00
     .240000000000D+01  .000000000000D+00 -.107102096081D-07  .460000000000D+02
     .129606000000D+06  .400000000000D+01
19 09  6 29 14  0  0.0  .208392739296D-04 -.136424205266D-11  .000000000000D+00
     .370000000000D+02 -.784375000000D+01  .444197074020D-08  .288891873908D+01
    -.394880771637D-06  .571685982868D-02  .987946987152D-05  .515362412071D+04
     .136800000000D+06 -.204890966415D-07 -.199555653825D+01  .707805156708D-07
     .957218324831D+00  .185437500000D+03 -.338973614194D+00 -.789247161027D-08
    -.113576159474D-09  .100000000000D+01  .153800000000D+04  .000000000000D+00
     .240000000000D+01  .000000000000D+00 -.144354999065D-07  .370000000000D+02
     .129606000000D+06  .400000000000D+01
20 09  6 29 14  0  0.0  .786548480392D-04 -.102318153949D-11  .000000000000D+00
     .520000000000D+02  .211250000000D+02  .532665044780D-08 -.131992154990D+01
     .130198895931D-05  .389391242061D-02  .441260635853D-05  .515358125877D+04
     .136800000000D+06  .186264514923D-08  .308087621658D-03  .353902578354D-07
     .941834848848D+00  .287593750000D+03  .136590716258D+01 -.858357182593D-08
     .142863093678D-11  .100000000000D+01  .153800000000D+04  .000000000000D+00
     .240000000000D+01  .000000000000D+00 -.651925802231D-08  .520000000000D+02
     .129606000000D+06  .400000000000D+01
21 09  6 29 14  0  0.0  .562006607652D-05 -.216004991671D-11  .000000000000D+00
     .280000000000D+02  .618750000000D+02  .522736059769D-08 -.192563560062D+00
     .349245965481D-05  .154278755654D-01  .829249620438D-05  .515360374641D+04
     .136800000000D+06  .135973095894D-06 -.100390264327D+01  .173225998878D-06
     .933676814496D+00  .207093750000D+03 -.258561945165D+01 -.859821529304D-08
     .246438836595D-09  .100000000000D+01  .153800000000D+04  .000000000000D+00
     .240000000000D+01  .000000000000D+00 -.121071934700D-07  .280000000000D+02
     .129606000000D+06  .400000000000D+01
22 09  6 29 14  0  0.0  .196519773453D-03 -.682121026330D-12  .000000000000D+00
     .140000000000D+02  .184062500000D+02  .527986278462D-08 -.250212380019D+01
     .832602381706D-06  .511327967979D-02  .406801700592D-05  .515365840340D+04
     .136800000000D+06  .149011611938D-06  .597562200121D-01  .782310962677D-07
     .939841305511D+00  .287093750000D+03 -.189289588461D+01 -.852392648432D-08
     .400016662300D-10  .100000000000D+01  .153800000000D+04  .000000000000D+00
     .240000000000D+01  .000000000000D+00 -.176951289177D-07  .140000000000D+02
     .129606000000D+06  .400000000000D+01
23 09  6 29 14  0  0.0  .390186905861D-03  .000000000000D+00  .000000000000D+00
     .500000000000D+02 -.288750000000D+02  .445875715370D-08  .235219698462D+01
    -.137090682983D-05  .626631174237D-02  .795535743237D-05  .515360080338D+04
     .136800000000D+06 -.558793544769D-08  .107813386275D+01  .240281224251D-06
     .970182589279D+00  .233312500000D+03  .290112313316D+01 -.806176437627D-08
    -.179293182566D-09  .100000000000D+01  .153800000000D+04  .000000000000D+00
     .240000000000D+01  .000000000000D+00 -.200234353542D-07  .500000000000D+02
     .129606000000D+06  .400000000000D+01
24 09  6 29 14  0  0.0  .200625043362D-03  .306954461848D-11  .000000000000D+00
     .136000000000D+03  .659687500000D+02  .477198448659D-08 -.155520517935D+01
     .338628888130D-05  .665925769135D-02  .879541039467D-05  .515367684746D+04
     .136800000000D+06 -.115483999252D-06 -.971207642811D+00 -.800937414169D-07
     .950325754116D+00  .208281250000D+03 -.650022724787D+00 -.819248410699D-08
     .302155443130D-09  .100000000000D+01  .153800000000D+04  .000000000000D+00
     .240000000000D+01  .000000000000D+00 -.139698386192D-08  .136000000000D+03
     .129606000000D+06  .400000000000D+01
25 09  6 29 14  0  0.0  .485051423311D-03  .179625203600D-10  .000000000000D+00
     .950000000000D+02  .584375000000D+01  .436482466961D-08 -.105517440217D+01
     .264495611191D-06  .113260624930D-01  .850111246109D-05  .515365251541D+04
     .136800000000D+06 -.199303030968D-06  .202594098103D+01 -.186264514923D-07
     .969950204742D+00  .219687500000D+03 -.120866996250D+01 -.822677124947D-08
     .201436962087D-09  .100000000000D+01  .153800000000D+04  .000000000000D+00
     .240000000000D+01  .630000000000D+02 -.745058059692D-08  .950000000000D+02
     .129606000000D+06  .400000000000D+01
27 09  6 29 14  0  0.0  .615329481661D-04  .318323145621D-11  .000000000000D+00
     .600000000000D+01 -.787500000000D+01  .415660171057D-08 -.311312023743D+01
    -.212341547012D-06  .212943915976D-01  .838935375214D-05  .515377769279D+04
     .136800000000D+06  .474974513054D-06  .206244038481D+01  .204890966415D-07
     .974697588958D+00  .217156250000D+03 -.157931729064D+01 -.762138889001D-08
     .188579283656D-09  .100000000000D+01  .153800000000D+04  .000000000000D+00
     .240000000000D+01  .000000000000D+00 -.419095158577D-08  .600000000000D+01
     .129606000000D+06  .400000000000D+01
28 09  6 29 14  0  0.0 -.257254578173D-04 -.227373675443D-12  .000000000000D+00
     .270000000000D+02 -.337812500000D+02  .439911181209D-08 -.225730769267D+01
    -.173039734364D-05  .149142498849D-01  .618956983089D-05  .515364291382D+04
     .136800000000D+06  .128522515297D-06 -.308555304864D+01 -.130385160446D-06
     .967249320034D+00  .263031250000D+03 -.202269073840D+01 -.779889628391D-08
     .203579908492D-10  .100000000000D+01  .153800000000D+04  .000000000000D+00
     .240000000000D+01  .000000000000D+00 -.107102096081D-07  .270000000000D+02
     .129606000000D+06  .400000000000D+01
29 09  6 29 14  0  0.0  .347681343555D-04  .352429196937D-11  .000000000000D+00
     .290000000000D+02 -.286875000000D+02  .437196782429D-08 -.200666955887D+00
    -.144168734550D-05  .338914128952D-02  .976957380772D-05  .515365719223D+04
     .136800000000D+06 -.221654772758D-06 -.204332015084D+01 -.577419996262D-07
     .959773246888D+00  .192687500000D+03 -.130556663260D+01 -.790068623815D-08
    -.155363614375D-09  .100000000000D+01  .153800000000D+04  .000000000000D+00
     .240000000000D+01  .000000000000D+00 -.884756445885D-08  .290000000000D+02
     .129606000000D+06  .400000000000D+01
30 09  6 29 14  0  0.0  .157230067998D-03  .272848410532D-11  .000000000000D+00
     .134000000000D+03 -.218125000000D+02  .483877298289D-08 -.176261742228D+01
    -.107288360596D-05  .115757470485D-01  .555813312531D-05  .515357306480D+04
     .136800000000D+06  .232830643654D-06  .312423210380D+01  .219792127609D-06
     .952694515459D+00  .267093750000D+03  .142347644295D+01 -.819891294621D-08
    -.439304013061D-10  .100000000000D+01  .153800000000D+04  .000000000000D+00
     .240000000000D+01  .000000000000D+00 -.838190317154D-08  .134000000000D+03
     .129606000000D+06  .400000000000D+01
31 09  6 29 14  0  0.0 -.630915164948D-04 -.568434188608D-12  .000000000000D+00
     .500000000000D+02 -.550000000000D+01  .424089093584D-08  .583295694276D+00
    -.398606061935D-06  .700491620228D-02  .801682472229D-05  .515374094963D+04
     .136800000000D+06 -.838190317154D-07  .211843319101D+01 -.111758708954D-06
     .973129735765D+00  .236000000000D+03 -.113780409244D+01 -.806390732268D-08
     .109647424398D-09  .100000000000D+01  .153800000000D+04  .000000000000D+00
     .240000000000D+01  .000000000000D+00 -.130385160446D-07  .500000000000D+02
     .129606000000D+06  .400000000000D+01
